{
  "type": "FeatureCollection",
  "features": [
    {
      "type": "Feature",
      "properties": {
        "norad_id": 24876,
        "name": "GPS BIIR-2  (PRN 13)",
        "group": "gps-ops",
        "lat": 50.94138977763995,
        "lon": -130.94565257910156,
        "alt_km": 20021.675455407716,
        "timestamp": "2025-12-20T20:38:44.701503+00:00",
        "meta_object_name": "GPS BIIR-2  (PRN 13)",
        "meta_object_id": "1997-035A",
        "meta_epoch": "2025-12-20T05:04:22.923552",
        "meta_mean_motion": 2.0056375,
        "meta_eccentricity": 0.00968119,
        "meta_inclination": 55.8989,
        "meta_ra_of_asc_node": 105.5767,
        "meta_arg_of_pericenter": 56.9717,
        "meta_mean_anomaly": 303.9301,
        "meta_ephemeris_type": 0,
        "meta_classification_type": "U",
        "meta_norad_cat_id": 24876,
        "meta_element_set_no": 999,
        "meta_rev_at_epoch": 20836,
        "meta_bstar": 0,
        "meta_mean_motion_dot": -8e-08,
        "meta_mean_motion_ddot": 0,
        "tle_line1": "1 24876U 97035A   25354.21137643 -.00000008  00000+0  00000+0 0  9994",
        "tle_line2": "2 24876  55.8989 105.5767 0096811  56.9717 303.9301  2.00563750208360"
      },
      "geometry": {
        "type": "Point",
        "coordinates": [
          -130.94565257910156,
          50.94138977763995
        ]
      }
    },
    {
      "type": "Feature",
      "properties": {
        "norad_id": 26360,
        "name": "GPS BIIR-4  (PRN 20)",
        "group": "gps-ops",
        "lat": -17.199977390131597,
        "lon": -140.97453123144066,
        "alt_km": 20106.730816687996,
        "timestamp": "2025-12-20T20:38:44.701532+00:00",
        "meta_object_name": "GPS BIIR-4  (PRN 20)",
        "meta_object_id": "2000-025A",
        "meta_epoch": "2025-12-20T02:15:34.027776",
        "meta_mean_motion": 2.00567172,
        "meta_eccentricity": 0.00388878,
        "meta_inclination": 55.0495,
        "meta_ra_of_asc_node": 26.5404,
        "meta_arg_of_pericenter": 242.6813,
        "meta_mean_anomaly": 125.6074,
        "meta_ephemeris_type": 0,
        "meta_classification_type": "U",
        "meta_norad_cat_id": 26360,
        "meta_element_set_no": 999,
        "meta_rev_at_epoch": 18768,
        "meta_bstar": 0,
        "meta_mean_motion_dot": -6.6e-07,
        "meta_mean_motion_ddot": 0,
        "tle_line1": "1 26360U 00025A   25354.09414384 -.00000066  00000+0  00000+0 0  9997",
        "tle_line2": "2 26360  55.0495  26.5404 0038887 242.6813 125.6074  2.00567172187683"
      },
      "geometry": {
        "type": "Point",
        "coordinates": [
          -140.97453123144066,
          -17.199977390131597
        ]
      }
    },
    {
      "type": "Feature",
      "properties": {
        "norad_id": 26407,
        "name": "GPS BIIR-5  (PRN 22)",
        "group": "gps-ops",
        "lat": 33.50318882866436,
        "lon": -109.99364925985886,
        "alt_km": 20234.197549173292,
        "timestamp": "2025-12-20T20:38:44.701549+00:00",
        "meta_object_name": "GPS BIIR-5  (PRN 22)",
        "meta_object_id": "2000-040A",
        "meta_epoch": "2025-12-20T01:19:00.172704",
        "meta_mean_motion": 2.0056811,
        "meta_eccentricity": 0.01256107,
        "meta_inclination": 54.8892,
        "meta_ra_of_asc_node": 222.2781,
        "meta_arg_of_pericenter": 301.9338,
        "meta_mean_anomaly": 237.6446,
        "meta_ephemeris_type": 0,
        "meta_classification_type": "U",
        "meta_norad_cat_id": 26407,
        "meta_element_set_no": 999,
        "meta_rev_at_epoch": 18635,
        "meta_bstar": 0,
        "meta_mean_motion_dot": 7.4e-07,
        "meta_mean_motion_ddot": 0,
        "tle_line1": "1 26407U 00040A   25354.05486311  .00000074  00000+0  00000+0 0  9999",
        "tle_line2": "2 26407  54.8892 222.2781 0125610 301.9338 237.6446  2.00568110186351"
      },
      "geometry": {
        "type": "Point",
        "coordinates": [
          -109.99364925985886,
          33.50318882866436
        ]
      }
    },
    {
      "type": "Feature",
      "properties": {
        "norad_id": 27663,
        "name": "GPS BIIR-8  (PRN 16)",
        "group": "gps-ops",
        "lat": 1.3065727865773633,
        "lon": 41.15087485371965,
        "alt_km": 20411.487602368605,
        "timestamp": "2025-12-20T20:38:44.701563+00:00",
        "meta_object_name": "GPS BIIR-8  (PRN 16)",
        "meta_object_id": "2003-005A",
        "meta_epoch": "2025-12-20T15:07:28.763328",
        "meta_mean_motion": 2.00570507,
        "meta_eccentricity": 0.01477423,
        "meta_inclination": 54.9216,
        "meta_ra_of_asc_node": 222.0644,
        "meta_arg_of_pericenter": 51.9121,
        "meta_mean_anomaly": 319.0535,
        "meta_ephemeris_type": 0,
        "meta_classification_type": "U",
        "meta_norad_cat_id": 27663,
        "meta_element_set_no": 999,
        "meta_rev_at_epoch": 16773,
        "meta_bstar": 0,
        "meta_mean_motion_dot": 7.3e-07,
        "meta_mean_motion_ddot": 0,
        "tle_line1": "1 27663U 03005A   25354.63019402  .00000073  00000+0  00000+0 0  9994",
        "tle_line2": "2 27663  54.9216 222.0644 0147742  51.9121 319.0535  2.00570507167733"
      },
      "geometry": {
        "type": "Point",
        "coordinates": [
          41.15087485371965,
          1.3065727865773633
        ]
      }
    },
    {
      "type": "Feature",
      "properties": {
        "norad_id": 28190,
        "name": "GPS BIIR-11 (PRN 19)",
        "group": "gps-ops",
        "lat": -19.67195109512747,
        "lon": -91.61851511447885,
        "alt_km": 20467.28496781783,
        "timestamp": "2025-12-20T20:38:44.701576+00:00",
        "meta_object_name": "GPS BIIR-11 (PRN 19)",
        "meta_object_id": "2004-009A",
        "meta_epoch": "2025-12-20T02:10:39.105696",
        "meta_mean_motion": 2.00560582,
        "meta_eccentricity": 0.01084506,
        "meta_inclination": 54.979,
        "meta_ra_of_asc_node": 282.9228,
        "meta_arg_of_pericenter": 167.7566,
        "meta_mean_anomaly": 332.1268,
        "meta_ephemeris_type": 0,
        "meta_classification_type": "U",
        "meta_norad_cat_id": 28190,
        "meta_element_set_no": 999,
        "meta_rev_at_epoch": 15935,
        "meta_bstar": 0,
        "meta_mean_motion_dot": -3.4e-07,
        "meta_mean_motion_ddot": 0,
        "tle_line1": "1 28190U 04009A   25354.09073039 -.00000034  00000+0  00000+0 0  9999",
        "tle_line2": "2 28190  54.9790 282.9228 0108450 167.7566 332.1268  2.00560582159351"
      },
      "geometry": {
        "type": "Point",
        "coordinates": [
          -91.61851511447885,
          -19.67195109512747
        ]
      }
    },
    {
      "type": "Feature",
      "properties": {
        "norad_id": 28474,
        "name": "GPS BIIR-13 (PRN 02)",
        "group": "gps-ops",
        "lat": 30.24038114763446,
        "lon": -4.061363733222227,
        "alt_km": 20156.907186191056,
        "timestamp": "2025-12-20T20:38:44.701588+00:00",
        "meta_object_name": "GPS BIIR-13 (PRN 02)",
        "meta_object_id": "2004-045A",
        "meta_epoch": "2025-12-20T07:31:09.755904",
        "meta_mean_motion": 2.00569954,
        "meta_eccentricity": 0.01709047,
        "meta_inclination": 55.2369,
        "meta_ra_of_asc_node": 332.1012,
        "meta_arg_of_pericenter": 309.5849,
        "meta_mean_anomaly": 51.3395,
        "meta_ephemeris_type": 0,
        "meta_classification_type": "U",
        "meta_norad_cat_id": 28474,
        "meta_element_set_no": 999,
        "meta_rev_at_epoch": 15484,
        "meta_bstar": 0,
        "meta_mean_motion_dot": -7.7e-07,
        "meta_mean_motion_ddot": 0,
        "tle_line1": "1 28474U 04045A   25354.31330736 -.00000077  00000+0  00000+0 0  9996",
        "tle_line2": "2 28474  55.2369 332.1012 0170904 309.5849  51.3395  2.00569954154846"
      },
      "geometry": {
        "type": "Point",
        "coordinates": [
          -4.061363733222227,
          30.24038114763446
        ]
      }
    },
    {
      "type": "Feature",
      "properties": {
        "norad_id": 28874,
        "name": "GPS BIIRM-1 (PRN 17)",
        "group": "gps-ops",
        "lat": -3.029703604854157,
        "lon": -81.75905844818496,
        "alt_km": 20016.73535731764,
        "timestamp": "2025-12-20T20:38:44.701600+00:00",
        "meta_object_name": "GPS BIIRM-1 (PRN 17)",
        "meta_object_id": "2005-038A",
        "meta_epoch": "2025-12-20T01:24:11.888352",
        "meta_mean_motion": 2.00578006,
        "meta_eccentricity": 0.01314124,
        "meta_inclination": 55.0254,
        "meta_ra_of_asc_node": 280.4063,
        "meta_arg_of_pericenter": 293.7176,
        "meta_mean_anomaly": 202.3277,
        "meta_ephemeris_type": 0,
        "meta_classification_type": "U",
        "meta_norad_cat_id": 28874,
        "meta_element_set_no": 999,
        "meta_rev_at_epoch": 14824,
        "meta_bstar": 0,
        "meta_mean_motion_dot": -3e-07,
        "meta_mean_motion_ddot": 0,
        "tle_line1": "1 28874U 05038A   25354.05847093 -.00000030  00000+0  00000+0 0  9992",
        "tle_line2": "2 28874  55.0254 280.4063 0131412 293.7176 202.3277  2.00578006148242"
      },
      "geometry": {
        "type": "Point",
        "coordinates": [
          -81.75905844818496,
          -3.029703604854157
        ]
      }
    }
  ]
}